{
    "CCSDS_OMM_VERS": "3.0",
    "COMMENT": "GENERATED VIA SPACE-TRACK.ORG API",
    "CREATION_DATE": "2025-05-22T17:14:14",
    "ORIGINATOR": "18 SPCS",
    "OBJECT_NAME": "NAVSTAR 69 (USA 248)",
    "OBJECT_ID": "2014-008A",
    "CENTER_NAME": "EARTH",
    "REF_FRAME": "TEME",
    "TIME_SYSTEM": "UTC",
    "MEAN_ELEMENT_THEORY": "SGP4",
    "EPOCH": "2025-05-22T07:09:08.907264",
    "MEAN_MOTION": "2.00561987",
    "ECCENTRICITY": "0.00784970",
    "INCLINATION": "53.6133",
    "RA_OF_ASC_NODE": "165.2566",
    "ARG_OF_PERICENTER": "225.3571",
    "MEAN_ANOMALY": "134.0606",
    "EPHEMERIS_TYPE": "0",
    "CLASSIFICATION_TYPE": "U",
    "NORAD_CAT_ID": "39533",
    "ELEMENT_SET_NO": "999",
    "REV_AT_EPOCH": "8184",
    "BSTAR": "0.00000000000000",
    "MEAN_MOTION_DOT": "0.00000109",
    "MEAN_MOTION_DDOT": "0.0000000000000",
    "SEMIMAJOR_AXIS": "26560.491",
    "PERIOD": "717.983",
    "APOAPSIS": "20390.847",
    "PERIAPSIS": "19973.864",
    "OBJECT_TYPE": "PAYLOAD",
    "RCS_SIZE": "LARGE",
    "COUNTRY_CODE": "US",
    "LAUNCH_DATE": "2014-02-21",
    "SITE": "AFETR",
    "DECAY_DATE": null,
    "FILE": "4736220",
    "GP_ID": "288142294",
    "TLE_LINE0": "0 NAVSTAR 69 (USA 248)",
    "TLE_LINE1": "1 39533U 14008A   25142.29801976  .00000109  00000-0  00000-0 0  9992",
    "TLE_LINE2": "2 39533  53.6133 165.2566 0078497 225.3571 134.0606  2.00561987 81846"
}